METEOR-M 2              
1 40069U 14037A   22328.96716769  .00000019  00000+0  27884-4 0  9994
2 40069  98.4279 339.4187 0005036 206.2772 153.8149 14.20727458434658
HIMAWARI-8              
1 40267U 14060A   22328.88245958 -.00000256  00000+0  00000+0 0  9998
2 40267   0.0630 124.3694 0000934 126.5138 271.2965  1.00271372 29726
FENGYUN 2G              
1 40367U 14090A   22328.88868719 -.00000283  00000+0  00000+0 0  9998
2 40367   2.3349  87.7935 0001652 221.2495 174.2499  1.00272324 28963
METEOSAT-11 (MSG-4)     
1 40732U 15034A   22328.85447962  .00000015  00000+0  00000+0 0  9995
2 40732   0.4883 348.3443 0000785 138.3369 244.8058  1.00268677 26986
ELEKTRO-L 2             
1 41105U 15074A   22328.92333993 -.00000097  00000+0  00000+0 0  9991
2 41105   3.3883  86.2171 0002909 141.2688 154.3229  1.00270948 25478
HIMAWARI-9              
1 41836U 16064A   22328.88254674 -.00000256  00000+0  00000+0 0  9992
2 41836   0.0428 139.1159 0000821 104.4119 278.7553  1.00268811 22152
GOES 16                 
1 41866U 16071A   22328.83948725 -.00000229  00000+0  00000+0 0  9995
2 41866   0.0479 262.2039 0000533  25.6006   3.0135  1.00270291 22076
FENGYUN 4A              
1 41882U 16077A   22328.88868719 -.00000311  00000+0  00000+0 0  9990
2 41882   0.0833 296.5460 0005558  98.3932  93.4548  1.00270089 21944
CYGFM05                 
1 41884U 16078A   22328.32369168  .00003089  00000+0  15241-3 0  9997
2 41884  34.9564 285.4991 0013373  84.6959 275.5278 15.17378807329078
CYGFM04                 
1 41885U 16078B   22329.04211517  .00002673  00000+0  13007-3 0  9998
2 41885  34.9494 269.3341 0011955 111.9216 248.2768 15.17934913329397
CYGFM02                 
1 41886U 16078C   22328.89732785  .00002994  00000+0  14531-3 0  9995
2 41886  34.9586 272.4993 0012501 103.2405 256.9703 15.17974405329294
CYGFM01                 
1 41887U 16078D   22328.28047339  .00003136  00000+0  15557-3 0  9991
2 41887  34.9534 288.4202 0013824  83.3926 276.8359 15.17178250329015
CYGFM08                 
1 41888U 16078E   22328.93829479  .00002565  00000+0  12577-3 0  9991
2 41888  34.9500 276.1985 0013016 103.8094 256.4067 15.17673321329253
CYGFM06                 
1 41889U 16078F   22328.87599957  .00002821  00000+0  13700-3 0  9994
2 41889  34.9579 271.2828 0011446 103.3536 256.8453 15.17989948329239
CYGFM07                 
1 41890U 16078G   22328.86759296  .00002687  00000+0  13081-3 0  9991
2 41890  34.9517 270.2018 0011357 108.3059 251.8890 15.17917829329216
CYGFM03                 
1 41891U 16078H   22329.12926477  .00002646  00000+0  12885-3 0  9995
2 41891  34.9549 269.0793 0010884 108.6615 251.5279 15.17922295329393
FENGYUN 3D              
1 43010U 17072A   22328.88468538  .00000083  00000+0  60867-4 0  9993
2 43010  98.8341 272.8056 0001681 138.7245 221.4073 14.19113352260523
NOAA 20                 
1 43013U 17073A   22328.85736151  .00000051  00000+0  45120-4 0  9993
2 43013  98.7319 264.9881 0000885  54.0935 306.0323 14.19561322259989
GOES 17                 
1 43226U 18022A   22328.75518271  .00000117  00000+0  00000+0 0  9990
2 43226   0.0165 127.4004 0000274  89.0549 341.7860  1.00271600 17393
FENGYUN 2H              
1 43491U 18050A   22328.85311069 -.00000106  00000+0  00000+0 0  9991
2 43491   1.5521  94.1388 0003349  71.2875 284.4469  1.00268484 16398
METOP-C                 
1 43689U 18087A   22329.06636610  .00000091  00000+0  61429-4 0  9995
2 43689  98.7142  26.5772 0002171 300.7368  59.3595 14.21484244210126
GEO-KOMPSAT-2A          
1 43823U 18100A   22329.02349247 -.00000325  00000+0  00000+0 0  9998
2 43823   0.0613 109.0152 0000910  32.9997  58.6745  1.00272056 14620
METEOR-M2 2             
1 44387U 19038A   22328.87823248  .00000023  00000+0  29513-4 0  9994
2 44387  98.7457 288.5353 0001729 133.1702 226.9627 14.23731764176239
FENGYUN 3E              
1 49008U 21062A   22328.91431361  .00000013  00000+0  26580-4 0  9995
2 49008  98.7172 328.3879 0000861 220.6026 139.5097 14.19746727 72089
GOES 18                 
1 51850U 22021A   22328.75518271  .00000116  00000+0  00000+0 0  9995
2 51850   0.0083  64.3298 0001640 172.2490 322.0664  1.00271374  2741
JPSS-2                  
1 54234U 22150A   22328.43699279 -.00000238  00000+0 -84062-4 0  9992
2 54234  98.6956 264.6783 0023296 199.9892 160.0352 14.24089699  1996
PROGRESS-MS 21          
1 54155U 22140A   22327.55855324  .00009693  00000+0  17653-3 0  9993
2 54155  51.6440 267.0794 0007097 105.2162 226.2847 15.50162873369891
STARLINK-5290           
1 54157U 22141A   22328.91667824 -.01196452  00000+0 -23917-1 0  9994
2 54157  53.2174   6.8430 0001707  35.2466 166.7755 15.48932857  4405
STARLINK-5297           
1 54158U 22141B   22328.91667824 -.01208015  00000+0 -24682-1 0  9994
2 54158  53.2175   6.8564 0001908  33.7750 161.8502 15.48337906  4407
STARLINK-5294           
1 54159U 22141C   22328.91667824 -.01195303  00000+0 -24212-1 0  9999
2 54159  53.2177   6.8523 0001609  45.7390 152.0747 15.48556765  1301
STARLINK-5233           
1 54160U 22141D   22328.91667824 -.00086262  00000+0 -61597-3 0  9992
2 54160  53.2187   5.9276 0003263   7.2933 292.8431 15.73211791  1301
STARLINK-5269           
1 54161U 22141E   22328.91667824 -.01200683  00000+0 -24276-1 0  9990
2 54161  53.2174   6.8482 0001651  43.7368 155.9068 15.48621103  4406
STARLINK-5273           
1 54162U 22141F   22328.91667824 -.01193813  00000+0 -23595-1 0  9990
2 54162  53.2174   6.8386 0001672  42.0524 162.1291 15.49247585  4406
STARLINK-5161           
1 54163U 22141G   22329.25001157 -.00067679  00000+0 -48199-3 0  9998
2 54163  53.2178   4.3297 0003595 355.7750   8.9389 15.73174329  4470
STARLINK-5278           
1 54164U 22141H   22328.91667824  .00005229  00000+0  41645-4 0  9991
2 54164  53.2177   5.9800 0003497   9.7544 265.2296 15.73209983  4419
STARLINK-5279           
1 54165U 22141J   22328.91667824 -.01172160  00000+0 -22880-1 0  9991
2 54165  53.2176   6.8352 0001568  40.0386 166.0839 15.49551099  4401
STARLINK-5280           
1 54166U 22141K   22328.91667824  .00001459  00000+0  14834-4 0  9994
2 54166  53.2173   5.9750 0003211  12.1184 264.0869 15.73198483  1303
STARLINK-5243           
1 54167U 22141L   22329.25001157 -.00399615  00000+0 -73610-2 0  9995
2 54167  53.2172   5.2466 0001345  99.6770 169.1276 15.50026457  4459
STARLINK-5245           
1 54168U 22141M   22329.25001157  .00042985  00000+0  30822-3 0  9998
2 54168  53.2176   4.3257 0003515  12.4501 353.5455 15.73263325  4470
STARLINK-5282           
1 54169U 22141N   22329.25001157 -.00134394  00000+0 -96552-3 0  9999
2 54169  53.2175   4.3308 0003580  10.9453 352.3242 15.73260577  4475
STARLINK-5155           
1 54170U 22141P   22329.25001157 -.00091831  00000+0 -65483-3 0  9998
2 54170  53.2171   4.3257 0003643   9.2052 357.6565 15.73267061  4462
STARLINK-5229           
1 54171U 22141Q   22329.25001157 -.00026242  00000+0 -18286-3 0  9992
2 54171  53.2181   4.3328 0003455  13.1569 349.5440 15.73223939  4470
STARLINK-5117           
1 54172U 22141R   22329.25001157 -.00089849  00000+0 -64045-3 0  9999
2 54172  53.2173   4.3191 0003885   7.1613   0.8584 15.73265510  4477
STARLINK-5242           
1 54173U 22141S   22329.25001157 -.00083074  00000+0 -59155-3 0  9990
2 54173  53.2174   4.3254 0003501  12.9224 352.7250 15.73260208  4474
STARLINK-5248           
1 54174U 22141T   22328.91667824  .00076690  00000+0  54750-3 0  9992
2 54174  53.2160   5.1774 0002481  22.4438 280.9152 15.73127777  1300
STARLINK-5256           
1 54175U 22141U   22329.25001157 -.00064481  00000+0 -45880-3 0  9993
2 54175  53.2178   4.3217 0003761   9.2948 358.3801 15.73174787  4479
STARLINK-5154           
1 54176U 22141V   22329.25001157 -.00084844  00000+0 -60443-3 0  9991
2 54176  53.2170   4.3135 0003838  12.2570 358.1764 15.73255856  4474
STARLINK-5186           
1 54177U 22141W   22329.25001157 -.00080145  00000+0 -56997-3 0  9991
2 54177  53.2184   4.3216 0003532  11.3096 357.2417 15.73274911  4472
STARLINK-5164           
1 54178U 22141X   22329.25001157 -.00051459  00000+0 -36374-3 0  9995
2 54178  53.2171   4.3121 0003704  10.8538   0.1832 15.73234986  4473
STARLINK-5122           
1 54179U 22141Y   22329.25001157 -.00061506  00000+0 -43625-3 0  9997
2 54179  53.2176   4.3182 0003340  15.7932 353.4576 15.73231575  4700
STARLINK-5228           
1 54180U 22141Z   22328.91667824  .00070746  00000+0  50472-3 0  9992
2 54180  53.2169   5.9550 0003392  10.1028 274.9107 15.73173399  1301
STARLINK-5227           
1 54181U 22141AA  22328.91667824 -.00035473  00000+0 -24901-3 0  9991
2 54181  53.2173   5.9611 0003702  12.0809 270.6316 15.73223262  1308
STARLINK-5231           
1 54182U 22141AB  22328.91667824  .00075319  00000+0  53701-3 0  9993
2 54182  53.2161   5.9484 0003540   7.7380 279.5926 15.73162049  1309
STARLINK-5239           
1 54183U 22141AC  22329.25001157  .00007929  00000+0  60796-4 0  9998
2 54183  53.2181   4.3108 0003722  19.8977 353.3832 15.73226523  4708
STARLINK-5162           
1 54184U 22141AD  22328.91667824  .00120368  00000+0  85088-3 0  9993
2 54184  53.2159   5.9508 0003476   7.3048 278.2794 15.73165822  1301
STARLINK-5235           
1 54185U 22141AE  22328.91667824 -.00158538  00000+0 -11419-2 0  9992
2 54185  53.2174   5.9619 0003620   2.7142 281.4114 15.73283158  1302
STARLINK-5194           
1 54186U 22141AF  22329.25001157 -.00006368  00000+0 -40906-4 0  9990
2 54186  53.2167   4.2968 0003529  12.1321   5.4748 15.73221117  4707
STARLINK-5240           
1 54187U 22141AG  22329.25001157 -.00008967  00000+0 -59461-4 0  9994
2 54187  53.2179   4.3119 0003330  14.8051 357.4347 15.73213687  4707
STARLINK-5238           
1 54188U 22141AH  22329.25001157 -.00091779  00000+0 -65409-3 0  9996
2 54188  53.2151   4.2939 0003548   8.0583   8.8604 15.73280679  4701
